start=new Date('%Y-%m-27T00:00:00.000Z').valueOf();
sats=[{"DECAY_DATE":null,"ARG_OF_PERICENTER":"236.0808","TLE_LINE2":"2 48696  53.0497 351.9080 0002604 236.0808  89.7590 15.59870544  3692","ELEMENT_SET_NO":"999","NORAD_CAT_ID":"48696","SEMIMAJOR_AXIS":"6766.168","SITE":"AFETR","ECCENTRICITY":"0.00026040","LAUNCH_DATE":"2021-05-26","BSTAR":"-0.01258500000000","REF_FRAME":"TEME","EPHEMERIS_TYPE":"0","OBJECT_TYPE":"PAYLOAD","EPOCH":"2021-08-21T22:00:01.999584","MEAN_ELEMENT_THEORY":"SGP4","RCS_SIZE":"LARGE","REV_AT_EPOCH":"369","MEAN_MOTION_DOT":"-0.00935552","CENTER_NAME":"EARTH","FILE":"3101032","RA_OF_ASC_NODE":"351.9080","TLE_LINE1":"1 48696U 21044BL  21233.91668981 -.00935552  00000-0 -12585-1 0  9996","MEAN_MOTION_DDOT":"0.0000000000000","MEAN_ANOMALY":"89.7590","COUNTRY_CODE":"US","OBJECT_ID":"2021-044BL","PERIOD":"92.315","APOAPSIS":"389.795","GP_ID":"183215389","INCLINATION":"53.0497","PERIAPSIS":"386.272","MEAN_MOTION":"15.59870544","OBJECT_NAME":"STARLINK-2753","CLASSIFICATION_TYPE":"U","TIME_SYSTEM":"UTC"},{"CLASSIFICATION_TYPE":"U","TIME_SYSTEM":"UTC","PERIAPSIS":"390.856","INCLINATION":"53.0487","MEAN_MOTION":"15.58633112","OBJECT_NAME":"STARLINK-2715","OBJECT_ID":"2021-044BM","GP_ID":"183215547","PERIOD":"92.389","APOAPSIS":"392.372","RA_OF_ASC_NODE":"351.9327","TLE_LINE1":"1 48697U 21044BM  21233.91668981 -.00955039  00000-0 -13506-1 0  9993","MEAN_MOTION_DDOT":"0.0000000000000","MEAN_ANOMALY":"207.6217","COUNTRY_CODE":"US","RCS_SIZE":"LARGE","MEAN_ELEMENT_THEORY":"SGP4","MEAN_MOTION_DOT":"-0.00955039","REV_AT_EPOCH":"369","CENTER_NAME":"EARTH","FILE":"3101032","BSTAR":"-0.01350600000000","REF_FRAME":"TEME","EPHEMERIS_TYPE":"0","EPOCH":"2021-08-21T22:00:01.999584","OBJECT_TYPE":"PAYLOAD","NORAD_CAT_ID":"48697","SEMIMAJOR_AXIS":"6769.749","ELEMENT_SET_NO":"999","ECCENTRICITY":"0.00011200","LAUNCH_DATE":"2021-05-26","SITE":"AFETR","DECAY_DATE":null,"TLE_LINE2":"2 48697  53.0487 351.9327 0001120  88.4207 207.6217 15.58633112  3694","ARG_OF_PERICENTER":"88.4207"},{"ECCENTRICITY":"0.00129340","LAUNCH_DATE":"2021-06-30","SITE":"AFETR","SEMIMAJOR_AXIS":"6896.122","NORAD_CAT_ID":"48879","ELEMENT_SET_NO":"999","DECAY_DATE":null,"TLE_LINE2":"2 48879  97.5170   2.1638 0012934 106.4234 148.4499 15.15986518  3603","ARG_OF_PERICENTER":"106.4234","MEAN_MOTION_DOT":"-0.00032675","REV_AT_EPOCH":"360","RCS_SIZE":"LARGE","MEAN_ELEMENT_THEORY":"SGP4","FILE":"3101032","CENTER_NAME":"EARTH","REF_FRAME":"TEME","BSTAR":"-0.00170370000000","EPOCH":"2021-08-21T22:00:01.999584","OBJECT_TYPE":"PAYLOAD","EPHEMERIS_TYPE":"0","GP_ID":"183215325","APOAPSIS":"526.907","PERIOD":"94.988","OBJECT_ID":"2021-059A","TLE_LINE1":"1 48879U 21059A   21233.91668981 -.00032675  00000-0 -17037-2 0  9997","RA_OF_ASC_NODE":"2.1638","COUNTRY_CODE":"US","MEAN_MOTION_DDOT":"0.0000000000000","MEAN_ANOMALY":"148.4499","TIME_SYSTEM":"UTC","CLASSIFICATION_TYPE":"U","PERIAPSIS":"509.068","INCLINATION":"97.5170","OBJECT_NAME":"STARLINK-3003","MEAN_MOTION":"15.15986518"},{"OBJECT_ID":"2021-059B","GP_ID":"183215496","APOAPSIS":"527.011","PERIOD":"94.987","MEAN_MOTION_DDOT":"0.0000000000000","MEAN_ANOMALY":"143.0678","COUNTRY_CODE":"US","RA_OF_ASC_NODE":"2.1619","TLE_LINE1":"1 48880U 21059B   21233.91668981 -.00032820  00000-0 -17105-2 0  9997","CLASSIFICATION_TYPE":"U","TIME_SYSTEM":"UTC","MEAN_MOTION":"15.16000091","OBJECT_NAME":"STARLINK-3004","PERIAPSIS":"508.881","INCLINATION":"97.5171","SEMIMAJOR_AXIS":"6896.081","NORAD_CAT_ID":"48880","ELEMENT_SET_NO":"999","ECCENTRICITY":"0.00131450","LAUNCH_DATE":"2021-06-30","SITE":"AFETR","TLE_LINE2":"2 48880  97.5171   2.1619 0013145 107.6124 143.0678 15.16000091  3605","ARG_OF_PERICENTER":"107.6124","DECAY_DATE":null,"CENTER_NAME":"EARTH","FILE":"3101032","RCS_SIZE":"LARGE","MEAN_ELEMENT_THEORY":"SGP4","MEAN_MOTION_DOT":"-0.00032820","REV_AT_EPOCH":"360","EPHEMERIS_TYPE":"0","EPOCH":"2021-08-21T22:00:01.999584","OBJECT_TYPE":"PAYLOAD","BSTAR":"-0.00171050000000","REF_FRAME":"TEME"},{"APOAPSIS":"521.531","PERIOD":"94.986","GP_ID":"183215410","OBJECT_ID":"2021-059C","COUNTRY_CODE":"US","MEAN_ANOMALY":"124.1695","MEAN_MOTION_DDOT":"0.0000000000000","TLE_LINE1":"1 48881U 21059C   21233.91668981 -.00031421  00000-0 -16401-2 0  9992","RA_OF_ASC_NODE":"2.1720","TIME_SYSTEM":"UTC","CLASSIFICATION_TYPE":"U","OBJECT_NAME":"STARLINK-3005","MEAN_MOTION":"15.16005029","INCLINATION":"97.5177","PERIAPSIS":"514.331","SITE":"AFETR","LAUNCH_DATE":"2021-06-30","ECCENTRICITY":"0.00052200","ELEMENT_SET_NO":"999","NORAD_CAT_ID":"48881","SEMIMAJOR_AXIS":"6896.066","ARG_OF_PERICENTER":"142.3106","TLE_LINE2":"2 48881  97.5177   2.1720 0005220 142.3106 124.1695 15.16005029  3601","DECAY_DATE":null,"FILE":"3101032","CENTER_NAME":"EARTH","REV_AT_EPOCH":"360","MEAN_MOTION_DOT":"-0.00031421","MEAN_ELEMENT_THEORY":"SGP4","RCS_SIZE":"LARGE","OBJECT_TYPE":"PAYLOAD","EPOCH":"2021-08-21T22:00:01.999584","EPHEMERIS_TYPE":"0","REF_FRAME":"TEME","BSTAR":"-0.00164010000000"}];
